NORAD_CAT_ID,OBJECT_NAME,OBJECT_TYPE,EPOCH,MEAN_MOTION,ECCENTRICITY,INCLINATION,RA_OF_ASC_NODE,ARG_OF_PERICENTER,MEAN_ANOMALY,BSTAR,MEAN_MOTION_DOT,MEAN_MOTION_DDOT,TLE_LINE0,TLE_LINE1,TLE_LINE2,SEMIMAJOR_AXIS,PERIOD,APOGEE,PERIGEE,DECAYED
51472.0,STARLINK-3415,PAYLOAD,2022-10-02 19:40:10,15.08836093,0.0002004,53.2163,147.9753,40.0762,320.0378,-7.891199999999999e-05,-1.544e-05,0.0,0 STARLINK-3415,1 51472U 22010S   22275.81957025 -.00001544  00000-0 -78912-4 0  9996,2 51472  53.2163 147.9753 0002004  40.0762 320.0378 15.08836093 38032,6917.892,95.438,541.144,538.371,0.0
51472.0,STARLINK-3415,PAYLOAD,2022-10-03 00:26:19,15.08839912,0.0002069,53.2166,147.0831,40.7858,319.3288,-2.0789e-05,-6.19e-06,0.0,0 STARLINK-3415,1 51472U 22010S   22276.01828646 -.00000619  00000-0 -20789-4 0  9996,2 51472  53.2166 147.0831 0002069  40.7858 319.3288 15.08839912 37568,6917.880999999999,95.438,541.177,538.314,0.0
51472.0,STARLINK-3415,PAYLOAD,2022-10-03 16:20:09,15.08855359,0.0002045999999999,53.2166,144.1093,41.2664,318.8483,0.0001434,1.996e-05,0.0,0 STARLINK-3415,1 51472U 22010S   22276.68067099  .00001996  00000-0  14340-3 0  9998,2 51472  53.2166 144.1093 0002046  41.2664 318.8483 15.08855359 38163,6917.833000000001,95.437,541.114,538.283,0.0
51472.0,STARLINK-3415,PAYLOAD,2022-10-04 08:14:01,15.0885667,0.0002077,53.2152,141.1358,39.3916,320.7227,0.00038409,5.833e-05,0.0,0 STARLINK-3415,1 51472U 22010S   22277.34307158  .00005833  00000-0  38409-3 0  9991,2 51472  53.2152 141.1358 0002077  39.3916 320.7227 15.08856670 37761,6917.829000000002,95.437,541.131,538.258,0.0
51472.0,STARLINK-3415,PAYLOAD,2022-10-04 20:57:07,15.08834371,0.0002063,53.2152,138.7571,42.6964,317.4188,-0.00010751,-1.999e-05,0.0,0 STARLINK-3415,1 51472U 22010S   22277.87300020 -.00001999  00000-0 -10751-3 0  9991,2 51472  53.2152 138.7571 0002063  42.6964 317.4188 15.08834371 37847,6917.898,95.438,541.19,538.335,0.0
51472.0,STARLINK-3415,PAYLOAD,2022-10-05 00:07:53,15.08830035,0.0001828,53.2146,138.1617,33.9187,326.1922,-0.00019684,-3.419e-05,0.0,0 STARLINK-3415,1 51472U 22010S   22278.00548020 -.00003419  00000-0 -19684-3 0  9994,2 51472  53.2146 138.1617 0001828  33.9187 326.1922 15.08830035 38367,6917.911,95.438,541.04,538.511,0.0
51472.0,STARLINK-3415,PAYLOAD,2022-10-05 08:04:49,15.08820573,0.0001717,53.2145,136.6741,29.948,330.161,-0.00014408,-2.579e-05,0.0,0 STARLINK-3415,1 51472U 22010S   22278.33668673 -.00002579  00000-0 -14408-3 0  9992,2 51472  53.2145 136.6741 0001717  29.9480 330.1610 15.08820573 38416,6917.94,95.439,540.993,538.617,0.0
51472.0,STARLINK-3415,PAYLOAD,2022-10-05 20:47:55,15.08825018,0.0001786999999999,53.2128,134.2955,30.6905,329.4191,0.00041942,6.391e-05,0.0,0 STARLINK-3415,1 51472U 22010S   22278.86661497  .00006391  00000-0  41942-3 0  9994,2 51472  53.2128 134.2955 0001787  30.6905 329.4191 15.08825018 37992,6917.926,95.439,541.0269999999998,538.555,0.0
51472.0,STARLINK-3415,PAYLOAD,2022-10-05 23:58:41,15.08830405,0.0001804,53.2132,133.701,30.5373,329.5724,0.00065141,0.00010092,0.0,0 STARLINK-3415,1 51472U 22010S   22278.99909578  .00010092  00000-0  65141-3 0  9993,2 51472  53.2132 133.7010 0001804  30.5373 329.5724 15.08830405 38014,6917.91,95.438,541.023,538.5269999999998,0.0
51472.0,STARLINK-3415,PAYLOAD,2022-10-06 20:38:42,15.08850604,0.0002255999999999,53.2135,129.8342,28.8255,331.2861,0.00065878,0.00010215,0.0,0 STARLINK-3415,1 51472U 22010S   22279.86021313  .00010215  00000-0  65878-3 0  9996,2 51472  53.2135 129.8342 0002256  28.8255 331.2861 15.08850604 38646,6917.848000000001,95.437,541.274,538.1519999999998,0.0
51472.0,STARLINK-3415,PAYLOAD,2022-10-07 01:24:51,15.08848645,0.0002229,53.2157,128.9436,34.6159,325.4977,0.00048185,7.391e-05,0.0,0 STARLINK-3415,1 51472U 22010S   22280.05893236  .00007391  00000-0  48185-3 0  9993,2 51472  53.2157 128.9436 0002229  34.6159 325.4977 15.08848645 38175,6917.854,95.437,541.261,538.177,0.0
51472.0,STARLINK-3415,PAYLOAD,2022-10-07 18:54:05,15.08854039,0.0001934,53.2161,125.6713,38.4801,321.6329,0.000272,4.045e-05,0.0,0 STARLINK-3415,1 51472U 22010S   22280.78756581  .00004045  00000-0  27200-3 0  9992,2 51472  53.2161 125.6713 0001934  38.4801 321.6329 15.08854039 38780,6917.837,95.437,541.04,538.365,0.0
51472.0,STARLINK-3415,PAYLOAD,2022-10-07 20:29:29,15.08843332,0.0002056,53.2147,125.3751,26.5079,333.6018,1.3878e-05,-6.7e-07,0.0,0 STARLINK-3415,1 51472U 22010S   22280.85380827 -.00000067  00000-0  13878-4 0  9994,2 51472  53.2147 125.3751 0002056  26.5079 333.6018 15.08843332 38292,6917.87,95.437,541.158,538.313,0.0
51472.0,STARLINK-3415,PAYLOAD,2022-10-07 23:40:15,15.08842013,0.0001939,53.2154,124.7803,34.5101,325.6016,-4.0351e-05,-9.3e-06,0.0,0 STARLINK-3415,1 51472U 22010S   22280.98628855 -.00000930  00000-0 -40351-4 0  9990,2 51472  53.2154 124.7803 0001939  34.5101 325.6016 15.08842013 38817,6917.874,95.437,541.081,538.398,0.0
51472.0,STARLINK-3415,PAYLOAD,2022-10-08 20:20:15,15.08848549,0.0002198999999999,53.2151,120.9141,33.2702,326.8428,0.00014726,2.057e-05,0.0,0 STARLINK-3415,1 51472U 22010S   22281.84740374  .00002057  00000-0  14726-3 0  9993,2 51472  53.2151 120.9141 0002199  33.2702 326.8428 15.08848549 38448,6917.854,95.437,541.24,538.198,0.0
51472.0,STARLINK-3415,PAYLOAD,2022-10-09 05:52:34,15.08850607,0.0002293,53.2153,119.1295,33.4734,326.6403,0.00017139,2.441e-05,0.0,0 STARLINK-3415,1 51472U 22010S   22282.24484132  .00002441  00000-0  17139-3 0  9993,2 51472  53.2153 119.1295 0002293  33.4734 326.6403 15.08850607 38508,6917.848000000001,95.437,541.299,538.127,0.0
51472.0,STARLINK-3415,PAYLOAD,2022-10-09 20:11:02,15.08837637,0.0002245,53.2153,116.4522,28.5737,331.5378,0.00038672,5.871e-05,0.0,0 STARLINK-3415,1 51472U 22010S   22282.84100621  .00005871  00000-0  38672-3 0  9992,2 51472  53.2153 116.4522 0002245  28.5737 331.5378 15.08837637 39095,6917.888000000001,95.438,541.306,538.2,0.0
51472.0,STARLINK-3415,PAYLOAD,2022-10-10 12:04:53,15.088451699999998,0.0002279999999999,53.216,113.4803,37.8085,322.3067,4.9661e-05,5.02e-06,0.0,0 STARLINK-3415,1 51472U 22010S   22283.50340015  .00000502  00000-0  49661-4 0  9996,2 51472  53.2160 113.4803 0002280  37.8085 322.3067 15.08845170 38699,6917.865,95.437,541.307,538.1519999999998,0.0
51472.0,STARLINK-3415,PAYLOAD,2022-10-10 15:15:40,15.08842456,0.0002304,53.2159,112.8855,38.2155,321.9,0.00011247,1.502e-05,0.0,0 STARLINK-3415,1 51472U 22010S   22283.63588110  .00001502  00000-0  11247-3 0  9999,2 51472  53.2159 112.8855 0002304  38.2155 321.9000 15.08842456 38716,6917.873000000001,95.437,541.332,538.144,0.0
51472.0,STARLINK-3415,PAYLOAD,2022-10-10 21:37:12,15.08835774,0.0002319,53.2158,111.696,37.7166,322.3989,4.1038e-05,3.65e-06,0.0,0 STARLINK-3415,1 51472U 22010S   22283.90084435  .00000365  00000-0  41038-4 0  9998,2 51472  53.2158 111.6960 0002319  37.7166 322.3989 15.08835774 39257,6917.893,95.438,541.363,538.154,0.0
51472.0,STARLINK-3415,PAYLOAD,2022-10-11 13:31:05,15.08828696,0.000226,53.217,108.7222,38.5398,321.5756,-3.9281e-05,-9.13e-06,0.0,0 STARLINK-3415,1 51472U 22010S   22284.56325689 -.00000913  00000-0 -39281-4 0  9998,2 51472  53.2170 108.7222 0002260  38.5398 321.5756 15.08828696 39359,6917.915,95.438,541.3430000000002,538.216,0.0
51472.0,STARLINK-3415,PAYLOAD,2022-10-12 11:46:29,15.0883304,0.0002296999999999,53.2171,104.559,33.8244,326.2894,1.3212e-05,-7.8e-07,0.0,0 STARLINK-3415,1 51472U 22010S   22285.49061744 -.00000078  00000-0  13212-4 0  9997,2 51472  53.2171 104.5590 0002297  33.8244 326.2894 15.08833040 38993,6917.901999999999,95.438,541.356,538.178,0.0
51472.0,STARLINK-3415,PAYLOAD,2022-10-12 19:43:24,15.088390099999998,0.0002381999999999,53.2172,103.0725,34.7702,325.3445,9.2906e-05,1.191e-05,0.0,0 STARLINK-3415,1 51472U 22010S   22285.82181245  .00001191  00000-0  92906-4 0  9996,2 51472  53.2172 103.0725 0002382  34.7702 325.3445 15.08839010 39044,6917.8830000000025,95.438,541.396,538.101,0.0
51472.0,STARLINK-3415,PAYLOAD,2022-10-13 11:37:15,15.08842635,0.0002381999999999,53.217,100.0983,34.9626,325.1522,0.00022041,3.222e-05,0.0,0 STARLINK-3415,1 51472U 22010S   22286.48420785  .00003222  00000-0  22041-3 0  9993,2 51472  53.2170 100.0983 0002382  34.9626 325.1522 15.08842635 39144,6917.871999999999,95.437,541.385,538.089,0.0
51472.0,STARLINK-3415,PAYLOAD,2022-10-13 14:48:01,15.08846526,0.0002384,53.217,99.5036,35.1481,324.9668,0.00025182,3.722e-05,0.0,0 STARLINK-3415,1 51472U 22010S   22286.61668491  .00003722  00000-0  25182-3 0  9990,2 51472  53.2170  99.5036 0002384  35.1481 324.9668 15.08846526 39667,6917.86,95.437,541.375,538.076,0.0
51472.0,STARLINK-3415,PAYLOAD,2022-10-13 17:58:47,15.08849278,0.0002358,53.2169,98.9088,35.9966,324.1184,0.00027445,4.083e-05,0.0,0 STARLINK-3415,1 51472U 22010S   22286.74916283  .00004083  00000-0  27445-3 0  9994,2 51472  53.2169  98.9088 0002358  35.9966 324.1184 15.08849278 39181,6917.852,95.437,541.3480000000002,538.086,0.0
51472.0,STARLINK-3415,PAYLOAD,2022-10-14 17:49:35,15.08840722,0.0002391,53.2191,94.4507,34.9427,325.1721,6.5751e-05,7.58e-06,0.0,0 STARLINK-3415,1 51472U 22010S   22287.74277230  .00000758  00000-0  65751-4 0  9995,2 51472  53.2191  94.4507 0002391  34.9427 325.1721 15.08840722 39331,6917.878000000002,95.438,541.3969999999998,538.089,0.0
51472.0,STARLINK-3415,PAYLOAD,2022-10-15 12:54:12,15.08848275,0.0002549999999999,53.2162,90.8801,35.9577,324.1587,-6.2769000000000025e-06,-3.88e-06,0.0,0 STARLINK-3415,1 51472U 22010S   22288.53764510 -.00000388  00000-0 -62769-5 0  9993,2 51472  53.2162  90.8801 0002550  35.9577 324.1587 15.08848275 39453,6917.855,95.437,541.484,537.956,0.0
51472.0,STARLINK-3415,PAYLOAD,2022-10-15 17:40:21,15.08847981,0.0002476,53.2168,89.9876,37.6905,322.426,-5.6261e-05,-1.184e-05,0.0,0 STARLINK-3415,1 51472U 22010S   22288.73636539 -.00001184  00000-0 -56261-4 0  9998,2 51472  53.2168  89.9876 0002476  37.6905 322.4260 15.08847981 39486,6917.856,95.437,541.434,538.008,0.0
